NUSHSAT1                
1 63211U 25052B   26068.64700493  .00023034  00000+0  74857-3 0  9997
2 63211  97.4095 325.7239 0005501  84.7512 275.4357 15.31903202 54882
STARLINK-33894          
1 63697U 25087A   26068.69747993  .00028522  00000+0  97148-3 0  9999
2 63697  53.1586 219.3210 0000555  28.0577 332.0454 15.30198518 49200
